H-2A R/B                
1 27601U 02056E   17103.84483697  .00000040  00000-0  29446-4 0  9993
2 27601  98.3814 173.8483 0073287 125.8294   7.9809 14.31773618748602
CZ-4B R/B               
1 28059U 03049C   17103.75671463  .00000009  00000-0  14094-4 0  9992
2 28059  98.5704 348.3846 0051393  83.9930 320.3472 14.52482513714332
CZ-2C R/B               
1 28222U 04012C   17103.92851503  .00000571  00000-0  39027-4 0  9996
2 28222  97.5187  61.6609 0049775  47.4147   1.2896 15.09134572710889
SL-16 R/B               
1 28353U 04021B   17103.85237908  .00000010  00000-0  30449-4 0  9997
2 28353  71.0005 213.3846 0006944 287.4614  72.5749 14.14186184663050
CZ-2C R/B               
1 28480U 04046B   17103.89258269  .00000006  00000-0  17333-4 0  9994
2 28480  98.1924 204.2348 0143006  54.6522  54.6073 14.25632746645053
ARIANE 5 R/B            
1 28499U 04049H   17103.82940674  .00000061  00000-0  14846-4 0  9995
2 28499  98.0801 186.4687 0093703  63.8826  74.7734 14.79802042664437
CZ-2D R/B               
1 28738U 05024B   17103.70343101  .00000487  00000-0  32884-4 0  9998
2 28738  97.5042 141.8252 0011172 220.7832 139.2563 15.11060415646050
SUZAKU (ASTRO-EII)      
1 28773U 05025A   17103.92053760  .00001350  00000-0  64801-4 0  9995
2 28773  31.3839 353.1489 0004590  60.7126 299.3979 15.15662941647611
ALOS (DAICHI)           
1 28931U 06002A   17103.95626386  .00000077  00000-0  23968-4 0  9994
2 28931  97.8491 134.5061 0002090 115.1245 245.0175 14.62335746598077
H-2A R/B                
1 28932U 06002B   17103.87375734  .00000436  00000-0  46872-4 0  9992
2 28932  98.2072  24.1760 0090453 161.4466 241.0637 14.91303152608111
AKARI (ASTRO-F)         
1 28939U 06005A   17103.82075250  .00002382  00000-0  75670-4 0  9997
2 28939  98.2562 298.0461 0108795  50.1164 310.9578 15.28277496603263
RESURS-DK 1             
1 29228U 06021A   17103.91476340  .00000125  00000-0  16884-4 0  9997
2 29228  69.9346 261.5956 0001703  64.3553 295.7784 15.02126893598442
GENESIS 1               
1 29252U 06029A   17103.62724687  .00000384  00000-0  29743-4 0  9995
2 29252  64.5039 136.3455 0010015 305.3588 189.9527 15.16675397591955
CZ-4B R/B               
1 29507U 06046C   17103.96744425  .00001057  00000-0  88229-4 0  9998
2 29507  97.7916 111.4294 0043904  98.9686 261.6511 15.00040386571363
CZ-2C R/B               
1 31114U 07010B   17103.83166281  .00000013  00000-0  25209-4 0  9991
2 31114  98.4040   9.6278 0060647  43.2770 317.3148 14.19238132518392
COSMO-SKYMED 1          
1 31598U 07023A   17103.83610752  .00000073  00000-0  15655-4 0  9998
2 31598  97.8789 288.5173 0001578  94.3775 265.7615 14.82158159532912
GENESIS 2               
1 31789U 07028A   17103.68258079  .00000346  00000-0  28342-4 0  9998
2 31789  64.5038 173.8834 0036361 229.6345 130.1601 15.15957059539130
COSMOS 2428             
1 31792U 07029A   17103.89056672  .00000018  00000-0  35712-4 0  9996
2 31792  70.9137 187.1077 0006805 350.7522   9.3472 14.12254958504909
SL-16 R/B               
1 31793U 07029B   17103.93329328  .00000131  00000-0  93641-4 0  9994
2 31793  70.9743 164.1306 0002479 259.5816 136.4883 14.14374496505594
KORONAS-FOTON           
1 33504U 09003A   17103.89435145  .00000509  00000-0  25662-4 0  9997
2 33504  82.4398 296.8672 0018790 336.6860  23.3518 15.14755982451647
TIANGONG 1              
1 37820U 11053A   17103.81249031  .00019289  00000-0  12365-3 0  9999
2 37820  42.7601 233.3482 0018945 338.4047 148.6398 15.75647875317806
CZ-3B R/B               
1 38253U 12018D   17103.92149205  .01299674  42870-5  60978-3 0  9994
2 38253  54.8811  20.9725 2006375 160.6327 208.3502 11.77275540119766
H-2A R/B                
1 38341U 12025E   17103.82779654  .00000165  00000-0  27045-4 0  9993
2 38341  98.4378 177.2404 0055999   6.7732 353.4224 14.83540786265256
CUSAT 2 & FALCON 9 R/B  
1 39271U 13055G   17103.90895288  .00009673  00000-0  24886-3 0  9993
2 39271  80.9692  65.0969 0638035  32.4235 331.4519 14.36212040183390
ALOS-2                  
1 39766U 14029A   17103.86377373  .00000111  00000-0  21790-4 0  9999
2 39766  97.9189 202.1123 0001621  87.9637 272.1766 14.79471482156096
ASTRO-H (HITOMI)        
1 41337U 16012A   17103.63478998  .00000340  00000-0  20936-4 0  9995
2 41337  31.0050 167.8420 0012424 123.3418 236.8408 14.98276358 63230
